[{"OBJECT_NAME":"FLOCK 4G-15","OBJECT_ID":"2025-009BX","EPOCH":"2026-03-09T17:13:37.807680","MEAN_MOTION":15.27266411,"ECCENTRICITY":0.00036988,"INCLINATION":97.4054,"RA_OF_ASC_NODE":151.1927,"ARG_OF_PERICENTER":316.8208,"MEAN_ANOMALY":43.274,"EPHEMERIS_TYPE":0,"CLASSIFICATION_TYPE":"U","NORAD_CAT_ID":62678,"ELEMENT_SET_NO":999,"REV_AT_EPOCH":12135,"BSTAR":0.00047574812,"MEAN_MOTION_DOT":0.00012647,"MEAN_MOTION_DDOT":0},{"OBJECT_NAME":"STARLINK-36113","OBJECT_ID":"2025-288Z","EPOCH":"2026-03-09T05:52:53.214240","MEAN_MOTION":15.27560673,"ECCENTRICITY":0.00010413,"INCLINATION":42.9997,"RA_OF_ASC_NODE":25.588,"ARG_OF_PERICENTER":268.0745,"MEAN_ANOMALY":91.9988,"EPHEMERIS_TYPE":0,"CLASSIFICATION_TYPE":"U","NORAD_CAT_ID":66982,"ELEMENT_SET_NO":999,"REV_AT_EPOCH":1522,"BSTAR":0.0010332646,"MEAN_MOTION_DOT":0.00028263,"MEAN_MOTION_DDOT":0}]
